HIMAWARI-8              
1 40267U 14060A   24022.92380815 -.00000274  00000+0  00000+0 0  9998
2 40267   0.0099 214.9169 0001165 108.5324 271.5363  1.00270152 33974
